[{"OBJECT_NAME":"COSMOS 2251 DEB","OBJECT_ID":"1993-036KM","EPOCH":"2026-03-29T03:22:53.461920","MEAN_MOTION":14.53781345,"ECCENTRICITY":0.0009874,"INCLINATION":74.0431,"RA_OF_ASC_NODE":341.9413,"ARG_OF_PERICENTER":33.4992,"MEAN_ANOMALY":116.7581,"EPHEMERIS_TYPE":0,"CLASSIFICATION_TYPE":"U","NORAD_CAT_ID":34116,"ELEMENT_SET_NO":999,"REV_AT_EPOCH":90032,"BSTAR":0.0006711,"MEAN_MOTION_DOT":2.791e-5,"MEAN_MOTION_DDOT":0},{"OBJECT_NAME":"COSMOS 2251 DEB","OBJECT_ID":"1993-036KN","EPOCH":"2026-03-29T05:04:11.180064","MEAN_MOTION":14.40521492,"ECCENTRICITY":0.0056985,"INCLINATION":74.0384,"RA_OF_ASC_NODE":147.0384,"ARG_OF_PERICENTER":200.8155,"MEAN_ANOMALY":159.0681,"EPHEMERIS_TYPE":0,"CLASSIFICATION_TYPE":"U","NORAD_CAT_ID":34117,"ELEMENT_SET_NO":999,"REV_AT_EPOCH":89656,"BSTAR":0.00060276,"MEAN_MOTION_DOT":1.929e-5,"MEAN_MOTION_DDOT":0},{"OBJECT_NAME":"COSMOS 2251 DEB","OBJECT_ID":"1993-036KP","EPOCH":"2026-03-29T02:10:19.663104","MEAN_MOTION":14.98890116,"ECCENTRICITY":0.0060334,"INCLINATION":73.9516,"RA_OF_ASC_NODE":33.2555,"ARG_OF_PERICENTER":199.023,"MEAN_ANOMALY":176.5518,"EPHEMERIS_TYPE":0,"CLASSIFICATION_TYPE":"U","NORAD_CAT_ID":34118,"ELEMENT_SET_NO":999,"REV_AT_EPOCH":90767,"BSTAR":0.0019165,"MEAN_MOTION_DOT":0.00024097,"MEAN_MOTION_DDOT":0},{"OBJECT_NAME":"COSMOS 2251 DEB","OBJECT_ID":"1993-036KR","EPOCH":"2026-03-29T05:22:05.267712","MEAN_MOTION":13.98800559,"ECCENTRICITY":0.018366,"INCLINATION":73.9937,"RA_OF_ASC_NODE":31.7409,"ARG_OF_PERICENTER":196.6763,"MEAN_ANOMALY":282.185,"EPHEMERIS_TYPE":0,"CLASSIFICATION_TYPE":"U","NORAD_CAT_ID":34120,"ELEMENT_SET_NO":999,"REV_AT_EPOCH":87469,"BSTAR":0.00025473,"MEAN_MOTION_DOT":3.99e-6,"MEAN_MOTION_DDOT":0},{"OBJECT_NAME":"COSMOS 2251 DEB","OBJECT_ID":"1993-036KS","EPOCH":"2026-03-28T23:22:20.047296","MEAN_MOTION":13.9236694,"ECCENTRICITY":0.0238744,"INCLINATION":73.9896,"RA_OF_ASC_NODE":275.0487,"ARG_OF_PERICENTER":97.734,"MEAN_ANOMALY":60.2388,"EPHEMERIS_TYPE":0,"CLASSIFICATION_TYPE":"U","NORAD_CAT_ID":34121,"ELEMENT_SET_NO":999,"REV_AT_EPOCH":86603,"BSTAR":0.0015036,"MEAN_MOTION_DOT":2.419e-5,"MEAN_MOTION_DDOT":0},{"OBJECT_NAME":"COSMOS 2251 DEB","OBJECT_ID":"1993-036KT","EPOCH":"2026-03-28T21:45:11.786688","MEAN_MOTION":14.66584571,"ECCENTRICITY":0.008238,"INCLINATION":74.034,"RA_OF_ASC_NODE":274.1158,"ARG_OF_PERICENTER":144.4007,"MEAN_ANOMALY":342.6098,"EPHEMERIS_TYPE":0,"CLASSIFICATION_TYPE":"U","NORAD_CAT_ID":34122,"ELEMENT_SET_NO":999,"REV_AT_EPOCH":90240,"BSTAR":0.0015383,"MEAN_MOTION_DOT":8.964e-5,"MEAN_MOTION_DDOT":0},{"OBJECT_NAME":"COSMOS 2251 DEB","OBJECT_ID":"1993-036KY","EPOCH":"2026-03-28T18:30:51.324768","MEAN_MOTION":14.32492168,"ECCENTRICITY":0.01123094,"INCLINATION":74.1773,"RA_OF_ASC_NODE":212.0798,"ARG_OF_PERICENTER":20.7988,"MEAN_ANOMALY":97.664,"EPHEMERIS_TYPE":0,"CLASSIFICATION_TYPE":"U","NORAD_CAT_ID":34127,"ELEMENT_SET_NO":999,"REV_AT_EPOCH":88289,"BSTAR":0.0010558172,"MEAN_MOTION_DOT":3.044e-5,"MEAN_MOTION_DDOT":0},{"OBJECT_NAME":"COSMOS 2251 DEB","OBJECT_ID":"1993-036KZ","EPOCH":"2026-03-28T17:42:39.705984","MEAN_MOTION":15.09084139,"ECCENTRICITY":0.00266285,"INCLINATION":73.9942,"RA_OF_ASC_NODE":79.1479,"ARG_OF_PERICENTER":183.3171,"MEAN_ANOMALY":355.3934,"EPHEMERIS_TYPE":0,"CLASSIFICATION_TYPE":"U","NORAD_CAT_ID":34128,"ELEMENT_SET_NO":999,"REV_AT_EPOCH":90761,"BSTAR":0.0028390646,"MEAN_MOTION_DOT":0.00045618,"MEAN_MOTION_DDOT":0},{"OBJECT_NAME":"COSMOS 2251 DEB","OBJECT_ID":"1993-036LA","EPOCH":"2026-03-29T04:06:53.106336","MEAN_MOTION":14.77876297,"ECCENTRICITY":0.0033335,"INCLINATION":74.0328,"RA_OF_ASC_NODE":130.9063,"ARG_OF_PERICENTER":193.3406,"MEAN_ANOMALY":166.6892,"EPHEMERIS_TYPE":0,"CLASSIFICATION_TYPE":"U","NORAD_CAT_ID":34129,"ELEMENT_SET_NO":999,"REV_AT_EPOCH":62869,"BSTAR":0.0012295,"MEAN_MOTION_DOT":8.906e-5,"MEAN_MOTION_DDOT":0},{"OBJECT_NAME":"COSMOS 2251 DEB","OBJECT_ID":"1993-036LH","EPOCH":"2026-03-29T01:07:35.133024","MEAN_MOTION":14.80907541,"ECCENTRICITY":0.0086866,"INCLINATION":74.0204,"RA_OF_ASC_NODE":192.8281,"ARG_OF_PERICENTER":287.5125,"MEAN_ANOMALY":254.9131,"EPHEMERIS_TYPE":0,"CLASSIFICATION_TYPE":"U","NORAD_CAT_ID":34136,"ELEMENT_SET_NO":999,"REV_AT_EPOCH":91583,"BSTAR":0.00044563,"MEAN_MOTION_DOT":3.638e-5,"MEAN_MOTION_DDOT":0},{"OBJECT_NAME":"COSMOS 2251 DEB","OBJECT_ID":"1993-036LL","EPOCH":"2026-03-28T09:29:37.544352","MEAN_MOTION":14.60817454,"ECCENTRICITY":0.00382848,"INCLINATION":74.0299,"RA_OF_ASC_NODE":52.3747,"ARG_OF_PERICENTER":103.4233,"MEAN_ANOMALY":57.8413,"EPHEMERIS_TYPE":0,"CLASSIFICATION_TYPE":"U","NORAD_CAT_ID":34139,"ELEMENT_SET_NO":999,"REV_AT_EPOCH":89691,"BSTAR":0.0015395033,"MEAN_MOTION_DOT":7.578e-5,"MEAN_MOTION_DDOT":0},{"OBJECT_NAME":"COSMOS 2251 DEB","OBJECT_ID":"1993-036LN","EPOCH":"2026-03-28T17:52:53.324832","MEAN_MOTION":14.50744345,"ECCENTRICITY":0.0050836,"INCLINATION":74.01,"RA_OF_ASC_NODE":189.4665,"ARG_OF_PERICENTER":251.3553,"MEAN_ANOMALY":235.5489,"EPHEMERIS_TYPE":0,"CLASSIFICATION_TYPE":"U","NORAD_CAT_ID":34141,"ELEMENT_SET_NO":999,"REV_AT_EPOCH":89230,"BSTAR":0.0015494,"MEAN_MOTION_DOT":6.174e-5,"MEAN_MOTION_DDOT":0},{"OBJECT_NAME":"COSMOS 2251 DEB","OBJECT_ID":"1993-036LQ","EPOCH":"2026-03-29T00:55:12.999360","MEAN_MOTION":14.65927071,"ECCENTRICITY":0.0051038,"INCLINATION":74.0083,"RA_OF_ASC_NODE":101.6628,"ARG_OF_PERICENTER":229.397,"MEAN_ANOMALY":130.2754,"EPHEMERIS_TYPE":0,"CLASSIFICATION_TYPE":"U","NORAD_CAT_ID":34270,"ELEMENT_SET_NO":999,"REV_AT_EPOCH":90653,"BSTAR":0.00057282,"MEAN_MOTION_DOT":3.163e-5,"MEAN_MOTION_DDOT":0},{"OBJECT_NAME":"COSMOS 2251 DEB","OBJECT_ID":"1993-036LR","EPOCH":"2026-03-29T04:37:46.584192","MEAN_MOTION":14.74061263,"ECCENTRICITY":0.0014112,"INCLINATION":74.0213,"RA_OF_ASC_NODE":351.9311,"ARG_OF_PERICENTER":27.2083,"MEAN_ANOMALY":125.7265,"EPHEMERIS_TYPE":0,"CLASSIFICATION_TYPE":"U","NORAD_CAT_ID":34271,"ELEMENT_SET_NO":999,"REV_AT_EPOCH":89801,"BSTAR":0.0028523,"MEAN_MOTION_DOT":0.00018827,"MEAN_MOTION_DDOT":0},{"OBJECT_NAME":"COSMOS 2251 DEB","OBJECT_ID":"1993-036LT","EPOCH":"2026-03-28T20:44:23.976096","MEAN_MOTION":14.62269992,"ECCENTRICITY":0.00139185,"INCLINATION":74.0343,"RA_OF_ASC_NODE":244.3335,"ARG_OF_PERICENTER":335.4731,"MEAN_ANOMALY":145.2673,"EPHEMERIS_TYPE":0,"CLASSIFICATION_TYPE":"U","NORAD_CAT_ID":34273,"ELEMENT_SET_NO":999,"REV_AT_EPOCH":90172,"BSTAR":0.00098179923,"MEAN_MOTION_DOT":4.932e-5,"MEAN_MOTION_DDOT":0},{"OBJECT_NAME":"COSMOS 2251 DEB","OBJECT_ID":"1993-036LU","EPOCH":"2026-03-29T03:15:59.751936","MEAN_MOTION":14.66165851,"ECCENTRICITY":0.0022286,"INCLINATION":74.0024,"RA_OF_ASC_NODE":223.3373,"ARG_OF_PERICENTER":340.9114,"MEAN_ANOMALY":200.1988,"EPHEMERIS_TYPE":0,"CLASSIFICATION_TYPE":"U","NORAD_CAT_ID":34274,"ELEMENT_SET_NO":999,"REV_AT_EPOCH":90234,"BSTAR":0.0011909,"MEAN_MOTION_DOT":6.549e-5,"MEAN_MOTION_DDOT":0}]
