COSMOS 2251 DEB         
1 34116U 93036KM  26088.14089655  .00002791  00000+0  67110-3 0  9994
2 34116  74.0431 341.9413 0009874  33.4992 116.7581 14.53781345900323
COSMOS 2251 DEB         
1 34117U 93036KN  26088.21124051  .00001929  00000+0  60276-3 0  9991
2 34117  74.0384 147.0384 0056985 200.8155 159.0681 14.40521492896561
COSMOS 2251 DEB         
1 34118U 93036KP  26088.09050536  .00024097  00000+0  19165-2 0  9995
2 34118  73.9516  33.2555 0060334 199.0230 176.5518 14.98890116907672
COSMOS 2251 DEB         
1 34120U 93036KR  26088.22367208  .00000399  00000+0  25473-3 0  9999
2 34120  73.9937  31.7409 0183660 196.6763 282.1850 13.98800559874694
COSMOS 2251 DEB         
1 34121U 93036KS  26087.97384314  .00002419  00000+0  15036-2 0  9996
2 34121  73.9896 275.0487 0238744  97.7340  60.2388 13.92366940866039
COSMOS 2251 DEB         
1 34122U 93036KT  26087.90638642  .00008964  00000+0  15383-2 0  9992
2 34122  74.0340 274.1158 0082380 144.4007 342.6098 14.66584571902405
COSMOS 2251 DEB         
1 34127U 93036KY  26087.77142737  .00003044  00000+0  10558-2 0  9990
2 34127  74.1773 212.0798 0112309  20.7988  97.6640 14.32492168882894
COSMOS 2251 DEB         
1 34128U 93036KZ  26087.73795956  .00045618  00000+0  28391-2 0  9991
2 34128  73.9942  79.1479 0026628 183.3171 355.3934 15.09084139907614
COSMOS 2251 DEB         
1 34129U 93036LA  26088.17144799  .00008906  00000+0  12295-2 0  9999
2 34129  74.0328 130.9063 0033335 193.3406 166.6892 14.77876297628697
COSMOS 2251 DEB         
1 34136U 93036LH  26088.04693441  .00003638  00000+0  44563-3 0  9997
2 34136  74.0204 192.8281 0086866 287.5125 254.9131 14.80907541915831
COSMOS 2251 DEB         
1 34139U 93036LL  26087.39557343  .00007578  00000+0  15395-2 0  9994
2 34139  74.0299  52.3747 0038284 103.4233  57.8413 14.60817454896913
COSMOS 2251 DEB         
1 34141U 93036LN  26087.74506163  .00006174  00000+0  15494-2 0  9991
2 34141  74.0100 189.4665 0050836 251.3553 235.5489 14.50744345892307
COSMOS 2251 DEB         
1 34270U 93036LQ  26088.03834490  .00003163  00000+0  57282-3 0  9991
2 34270  74.0083 101.6628 0051038 229.3970 130.2754 14.65927071906530
COSMOS 2251 DEB         
1 34271U 93036LR  26088.19290028  .00018827  00000+0  28523-2 0  9990
2 34271  74.0213 351.9311 0014112  27.2083 125.7265 14.74061263898018
COSMOS 2251 DEB         
1 34273U 93036LT  26087.86416639  .00004932  00000+0  98180-3 0  9992
2 34273  74.0343 244.3335 0013918 335.4731 145.2673 14.62269992901721
COSMOS 2251 DEB         
1 34274U 93036LU  26088.13610824  .00006549  00000+0  11909-2 0  9995
2 34274  74.0024 223.3373 0022286 340.9114 200.1988 14.66165851902343
